TEVEL2-2                
1 63219U 25052K   26068.64848259  .00020339  00000+0  69428-3 0  9991
2 63219  97.3987 324.7700 0004693 105.7930 254.3828 15.30343745 54855
STARLINK-35168          
1 65509U 25198T   26068.84622419  .00029493  00000+0  10038-2 0  9998
2 65509  53.1576 270.2991 0000830  85.4379 274.6717 15.30205231 28647
